start=new Date('2022-07-14T00:00:00.000Z').valueOf();
sats=[{"REF_FRAME":"TEME","APOAPSIS":"548.084","CLASSIFICATION_TYPE":"U","TLE_LINE1":"1 48594U 21041AT  22194.78075520 -.00002809  00000-0 -16979-3 0  9996","DECAY_DATE":null,"PERIOD":"95.592","GP_ID":"208065679","OBJECT_NAME":"STARLINK-2251","LAUNCH_DATE":"2021-05-15","ELEMENT_SET_NO":"999","SITE":"AFETR","TIME_SYSTEM":"UTC","ARG_OF_PERICENTER":"98.3467","INCLINATION":"53.0560","MEAN_MOTION":"15.06398079","MEAN_MOTION_DDOT":"0.0000000000000","RA_OF_ASC_NODE":"344.3444","CENTER_NAME":"EARTH","RCS_SIZE":"LARGE","COUNTRY_CODE":"US","ECCENTRICITY":"0.00012490","PERIAPSIS":"546.354","MEAN_ANOMALY":"261.7664","OBJECT_TYPE":"PAYLOAD","BSTAR":"-0.00016979000000","EPOCH":"2022-07-13T18:44:17.249280","SEMIMAJOR_AXIS":"6925.354","TLE_LINE2":"2 48594  53.0560 344.3444 0001249  98.3467 261.7664 15.06398079 64280","MEAN_ELEMENT_THEORY":"SGP4","REV_AT_EPOCH":"6428","EPHEMERIS_TYPE":"0","OBJECT_ID":"2021-041AT","FILE":"3513188","MEAN_MOTION_DOT":"-0.00002809","NORAD_CAT_ID":"48594"},{"APOAPSIS":"548.219","REF_FRAME":"TEME","OBJECT_NAME":"STARLINK-2252","ELEMENT_SET_NO":"999","LAUNCH_DATE":"2021-05-15","TIME_SYSTEM":"UTC","ARG_OF_PERICENTER":"80.0559","SITE":"AFETR","TLE_LINE1":"1 48595U 21041AU  22194.80009443  .00000846  00000-0  75661-4 0  9992","PERIOD":"95.592","DECAY_DATE":null,"CLASSIFICATION_TYPE":"U","GP_ID":"208065928","RCS_SIZE":"LARGE","CENTER_NAME":"EARTH","MEAN_MOTION":"15.06406447","MEAN_MOTION_DDOT":"0.0000000000000","INCLINATION":"53.0551","RA_OF_ASC_NODE":"14.1757","BSTAR":"0.00007566100000","SEMIMAJOR_AXIS":"6925.329","EPOCH":"2022-07-13T19:12:08.158752","OBJECT_TYPE":"PAYLOAD","FILE":"3513188","NORAD_CAT_ID":"48595","MEAN_MOTION_DOT":"0.00000846","MEAN_ELEMENT_THEORY":"SGP4","TLE_LINE2":"2 48595  53.0551  14.1757 0001481  80.0559 280.0597 15.06406447 65131","REV_AT_EPOCH":"6513","EPHEMERIS_TYPE":"0","OBJECT_ID":"2021-041AU","ECCENTRICITY":"0.00014810","COUNTRY_CODE":"US","PERIAPSIS":"546.168","MEAN_ANOMALY":"280.0597"},{"COUNTRY_CODE":"US","ECCENTRICITY":"0.00014440","PERIAPSIS":"546.185","MEAN_ANOMALY":"280.6145","OBJECT_TYPE":"PAYLOAD","BSTAR":"-0.00004136500000","SEMIMAJOR_AXIS":"6925.320","EPOCH":"2022-07-13T19:43:59.018304","MEAN_ELEMENT_THEORY":"SGP4","TLE_LINE2":"2 48596  53.0544  14.0801 0001444  79.5007 280.6145 15.06409235 64326","OBJECT_ID":"2021-041AV","REV_AT_EPOCH":"6432","EPHEMERIS_TYPE":"0","FILE":"3513188","NORAD_CAT_ID":"48596","MEAN_MOTION_DOT":"-0.00000898","INCLINATION":"53.0544","MEAN_MOTION":"15.06409235","MEAN_MOTION_DDOT":"0.0000000000000","RA_OF_ASC_NODE":"14.0801","CENTER_NAME":"EARTH","RCS_SIZE":"LARGE","CLASSIFICATION_TYPE":"U","TLE_LINE1":"1 48596U 21041AV  22194.82221086 -.00000898  00000-0 -41365-4 0  9997","PERIOD":"95.592","DECAY_DATE":null,"GP_ID":"208066182","OBJECT_NAME":"STARLINK-2253","ELEMENT_SET_NO":"999","LAUNCH_DATE":"2021-05-15","SITE":"AFETR","TIME_SYSTEM":"UTC","ARG_OF_PERICENTER":"79.5007","REF_FRAME":"TEME","APOAPSIS":"548.185"},{"TLE_LINE2":"2 48597  53.0543  14.3416 0001436  92.2358 267.8796 15.06402716 65128","MEAN_ELEMENT_THEORY":"SGP4","REV_AT_EPOCH":"6512","EPHEMERIS_TYPE":"0","OBJECT_ID":"2021-041AW","MEAN_MOTION_DOT":"0.00000538","FILE":"3513188","NORAD_CAT_ID":"48597","OBJECT_TYPE":"PAYLOAD","BSTAR":"0.00005502300000","SEMIMAJOR_AXIS":"6925.340","EPOCH":"2022-07-13T18:19:03.851328","MEAN_ANOMALY":"267.8796","COUNTRY_CODE":"US","ECCENTRICITY":"0.00014360","PERIAPSIS":"546.211","RCS_SIZE":"LARGE","CENTER_NAME":"EARTH","RA_OF_ASC_NODE":"14.3416","INCLINATION":"53.0543","MEAN_MOTION":"15.06402716","MEAN_MOTION_DDOT":"0.0000000000000","SITE":"AFETR","TIME_SYSTEM":"UTC","ARG_OF_PERICENTER":"92.2358","OBJECT_NAME":"STARLINK-2255","ELEMENT_SET_NO":"999","LAUNCH_DATE":"2021-05-15","GP_ID":"208066924","CLASSIFICATION_TYPE":"U","TLE_LINE1":"1 48597U 21041AW  22194.76323902  .00000538  00000-0  55023-4 0  9996","DECAY_DATE":null,"PERIOD":"95.592","APOAPSIS":"548.200","REF_FRAME":"TEME"},{"REF_FRAME":"TEME","APOAPSIS":"547.927","DECAY_DATE":null,"TLE_LINE1":"1 48598U 21041AX  22194.76692357  .00000960  00000-0  83329-4 0  9999","PERIOD":"95.591","CLASSIFICATION_TYPE":"U","GP_ID":"208065182","OBJECT_NAME":"STARLINK-2256","LAUNCH_DATE":"2021-05-15","ELEMENT_SET_NO":"999","ARG_OF_PERICENTER":"79.4901","TIME_SYSTEM":"UTC","SITE":"AFETR","MEAN_MOTION":"15.06411148","MEAN_MOTION_DDOT":"0.0000000000000","INCLINATION":"53.0546","RA_OF_ASC_NODE":"14.3218","RCS_SIZE":"LARGE","CENTER_NAME":"EARTH","COUNTRY_CODE":"US","ECCENTRICITY":"0.00010800","PERIAPSIS":"546.431","MEAN_ANOMALY":"280.6209","BSTAR":"0.00008332900000","EPOCH":"2022-07-13T18:24:22.196448","SEMIMAJOR_AXIS":"6925.314","OBJECT_TYPE":"PAYLOAD","FILE":"3513188","NORAD_CAT_ID":"48598","MEAN_MOTION_DOT":"0.00000960","MEAN_ELEMENT_THEORY":"SGP4","TLE_LINE2":"2 48598  53.0546  14.3218 0001080  79.4901 280.6209 15.06411148 64319","REV_AT_EPOCH":"6431","EPHEMERIS_TYPE":"0","OBJECT_ID":"2021-041AX"},{"INCLINATION":"53.0573","MEAN_MOTION":"15.06399005","MEAN_MOTION_DDOT":"0.0000000000000","RA_OF_ASC_NODE":"349.2070","CENTER_NAME":"EARTH","RCS_SIZE":"LARGE","COUNTRY_CODE":"US","ECCENTRICITY":"0.00013690","PERIAPSIS":"546.269","MEAN_ANOMALY":"280.7239","OBJECT_TYPE":"PAYLOAD","BSTAR":"-0.00000447690000","SEMIMAJOR_AXIS":"6925.352","EPOCH":"2022-07-13T19:02:11.316192","MEAN_ELEMENT_THEORY":"SGP4","TLE_LINE2":"2 48599  53.0573 349.2070 0001369  79.3904 280.7239 15.06399005 65488","OBJECT_ID":"2021-041AY","REV_AT_EPOCH":"6548","EPHEMERIS_TYPE":"0","MEAN_MOTION_DOT":"-0.00000348","FILE":"3513188","NORAD_CAT_ID":"48599","REF_FRAME":"TEME","APOAPSIS":"548.165","CLASSIFICATION_TYPE":"U","DECAY_DATE":null,"TLE_LINE1":"1 48599U 21041AY  22194.79318653 -.00000348  00000-0 -44769-5 0  9995","PERIOD":"95.592","GP_ID":"208065431","OBJECT_NAME":"STARLINK-2274","LAUNCH_DATE":"2021-05-15","ELEMENT_SET_NO":"999","SITE":"AFETR","TIME_SYSTEM":"UTC","ARG_OF_PERICENTER":"79.3904"},{"MEAN_ELEMENT_THEORY":"SGP4","TLE_LINE2":"2 48600  53.0564   4.3260 0001439 105.0997 255.0151 15.06408984 65269","REV_AT_EPOCH":"6526","EPHEMERIS_TYPE":"0","OBJECT_ID":"2021-041AZ","FILE":"3513188","MEAN_MOTION_DOT":"-0.00000414","NORAD_CAT_ID":"48600","OBJECT_TYPE":"PAYLOAD","BSTAR":"-0.00000892280000","EPOCH":"2022-07-13T18:20:23.201088","SEMIMAJOR_AXIS":"6925.321","MEAN_ANOMALY":"255.0151","ECCENTRICITY":"0.00014390","COUNTRY_CODE":"US","PERIAPSIS":"546.189","CENTER_NAME":"EARTH","RCS_SIZE":"LARGE","RA_OF_ASC_NODE":"4.3260","INCLINATION":"53.0564","MEAN_MOTION":"15.06408984","MEAN_MOTION_DDOT":"0.0000000000000","SITE":"AFETR","TIME_SYSTEM":"UTC","ARG_OF_PERICENTER":"105.0997","OBJECT_NAME":"STARLINK-2275","ELEMENT_SET_NO":"999","LAUNCH_DATE":"2021-05-15","GP_ID":"208066681","CLASSIFICATION_TYPE":"U","DECAY_DATE":null,"TLE_LINE1":"1 48600U 21041AZ  22194.76415742 -.00000414  00000-0 -89228-5 0  9995","PERIOD":"95.592","APOAPSIS":"548.183","REF_FRAME":"TEME"},{"CENTER_NAME":"EARTH","RCS_SIZE":"LARGE","RA_OF_ASC_NODE":"349.3607","INCLINATION":"53.0571","MEAN_MOTION":"15.06404761","MEAN_MOTION_DDOT":"0.0000000000000","MEAN_ELEMENT_THEORY":"SGP4","TLE_LINE2":"2 48602  53.0571 349.3607 0001463  73.5115 286.6034 15.06404761 65465","REV_AT_EPOCH":"6546","OBJECT_ID":"2021-041BB","EPHEMERIS_TYPE":"0","MEAN_MOTION_DOT":"-0.00000951","FILE":"3513188","NORAD_CAT_ID":"48602","OBJECT_TYPE":"PAYLOAD","BSTAR":"-0.00004496900000","SEMIMAJOR_AXIS":"6925.334","EPOCH":"2022-07-13T18:14:25.322784","MEAN_ANOMALY":"286.6034","ECCENTRICITY":"0.00014630","COUNTRY_CODE":"US","PERIAPSIS":"546.186","APOAPSIS":"548.212","REF_FRAME":"TEME","SITE":"AFETR","ARG_OF_PERICENTER":"73.5115","TIME_SYSTEM":"UTC","OBJECT_NAME":"STARLINK-2713","ELEMENT_SET_NO":"999","LAUNCH_DATE":"2021-05-15","GP_ID":"208066426","CLASSIFICATION_TYPE":"U","PERIOD":"95.592","TLE_LINE1":"1 48602U 21041BB  22194.76001531 -.00000951  00000-0 -44969-4 0  9992","DECAY_DATE":null},{"CENTER_NAME":"EARTH","RCS_SIZE":"LARGE","RA_OF_ASC_NODE":"344.1364","MEAN_MOTION_DDOT":"0.0000000000000","MEAN_MOTION":"15.06395958","INCLINATION":"53.0545","FILE":"3513188","MEAN_MOTION_DOT":"-0.00001259","NORAD_CAT_ID":"48603","EPHEMERIS_TYPE":"0","REV_AT_EPOCH":"6555","OBJECT_ID":"2021-041BC","TLE_LINE2":"2 48603  53.0545 344.1364 0001351  82.0363 278.0779 15.06395958 65554","MEAN_ELEMENT_THEORY":"SGP4","SEMIMAJOR_AXIS":"6925.361","EPOCH":"2022-07-13T19:20:04.185600","BSTAR":"-0.00006566000000","OBJECT_TYPE":"PAYLOAD","MEAN_ANOMALY":"278.0779","PERIAPSIS":"546.290","ECCENTRICITY":"0.00013510","COUNTRY_CODE":"US","APOAPSIS":"548.162","REF_FRAME":"TEME","TIME_SYSTEM":"UTC","ARG_OF_PERICENTER":"82.0363","SITE":"AFETR","ELEMENT_SET_NO":"999","LAUNCH_DATE":"2021-05-15","OBJECT_NAME":"STARLINK-2714","GP_ID":"208065680","DECAY_DATE":null,"TLE_LINE1":"1 48603U 21041BC  22194.80560400 -.00001259  00000-0 -65660-4 0  9996","PERIOD":"95.592","CLASSIFICATION_TYPE":"U"},{"CENTER_NAME":"EARTH","RCS_SIZE":"LARGE","MEAN_MOTION_DDOT":"0.0000000000000","MEAN_MOTION":"15.06404252","INCLINATION":"53.0558","RA_OF_ASC_NODE":"14.1456","SEMIMAJOR_AXIS":"6925.336","EPOCH":"2022-07-13T19:22:45.267168","BSTAR":"-0.00001049600000","OBJECT_TYPE":"PAYLOAD","FILE":"3513188","NORAD_CAT_ID":"48604","MEAN_MOTION_DOT":"-0.00000438","REV_AT_EPOCH":"6513","OBJECT_ID":"2021-041BD","EPHEMERIS_TYPE":"0","TLE_LINE2":"2 48604  53.0558  14.1456 0001339  73.0954 287.0182 15.06404252 65137","MEAN_ELEMENT_THEORY":"SGP4","PERIAPSIS":"546.273","ECCENTRICITY":"0.00013390","COUNTRY_CODE":"US","MEAN_ANOMALY":"287.0182","APOAPSIS":"548.128","REF_FRAME":"TEME","LAUNCH_DATE":"2021-05-15","ELEMENT_SET_NO":"999","OBJECT_NAME":"STARLINK-2757","TIME_SYSTEM":"UTC","ARG_OF_PERICENTER":"73.0954","SITE":"AFETR","TLE_LINE1":"1 48604U 21041BD  22194.80746837 -.00000438  00000-0 -10496-4 0  9992","PERIOD":"95.592","DECAY_DATE":null,"CLASSIFICATION_TYPE":"U","GP_ID":"208065929"}];
